start=new Date('2022-03-13T00:00:00.000Z').valueOf();
sats=[{"RA_OF_ASC_NODE":"91.5582","RCS_SIZE":"LARGE","LAUNCH_DATE":"2020-02-17","PERIAPSIS":"546.008","TLE_LINE2":"2 45198  53.0527  91.5582 0001715  54.3878 305.7271 15.06405988115312","CLASSIFICATION_TYPE":"U","OBJECT_TYPE":"PAYLOAD","COUNTRY_CODE":"US","INCLINATION":"53.0527","TLE_LINE1":"1 45198U 20012W   22071.75007356  .00000040  00000-0  21569-4 0  9998","TIME_SYSTEM":"UTC","DECAY_DATE":null,"GP_ID":"198602653","MEAN_ELEMENT_THEORY":"SGP4","EPHEMERIS_TYPE":"0","MEAN_ANOMALY":"305.7271","MEAN_MOTION":"15.06405988","ARG_OF_PERICENTER":"54.3878","OBJECT_ID":"2020-012W","PERIOD":"95.592","ELEMENT_SET_NO":"999","REF_FRAME":"TEME","FILE":"3356931","SEMIMAJOR_AXIS":"6925.330","OBJECT_NAME":"STARLINK-1154","MEAN_MOTION_DOT":"0.00000040","BSTAR":"0.00002156900000","SITE":"AFETR","REV_AT_EPOCH":"11531","MEAN_MOTION_DDOT":"0.0000000000000","APOAPSIS":"548.383","NORAD_CAT_ID":"45198","EPOCH":"2022-03-12T18:00:06.355584","ECCENTRICITY":"0.00017150","CENTER_NAME":"EARTH"},{"INCLINATION":"53.0525","COUNTRY_CODE":"US","OBJECT_TYPE":"PAYLOAD","TLE_LINE1":"1 45199U 20012X   22071.75375938  .00004198  00000-0  30040-3 0  9994","TIME_SYSTEM":"UTC","DECAY_DATE":null,"RCS_SIZE":"LARGE","RA_OF_ASC_NODE":"91.5399","LAUNCH_DATE":"2020-02-17","PERIAPSIS":"546.039","CLASSIFICATION_TYPE":"U","TLE_LINE2":"2 45199  53.0525  91.5399 0001623  58.7709 301.3438 15.06416341115374","MEAN_MOTION":"15.06416341","MEAN_ANOMALY":"301.3438","MEAN_ELEMENT_THEORY":"SGP4","GP_ID":"198603405","EPHEMERIS_TYPE":"0","FILE":"3356931","SEMIMAJOR_AXIS":"6925.298","OBJECT_NAME":"STARLINK-1197","MEAN_MOTION_DOT":"0.00004198","OBJECT_ID":"2020-012X","ARG_OF_PERICENTER":"58.7709","PERIOD":"95.591","REF_FRAME":"TEME","ELEMENT_SET_NO":"999","EPOCH":"2022-03-12T18:05:24.810432","NORAD_CAT_ID":"45199","ECCENTRICITY":"0.00016230","CENTER_NAME":"EARTH","BSTAR":"0.00030040000000","REV_AT_EPOCH":"11537","SITE":"AFETR","MEAN_MOTION_DDOT":"0.0000000000000","APOAPSIS":"548.287"},{"MEAN_ANOMALY":"304.9847","MEAN_MOTION":"15.06408112","EPHEMERIS_TYPE":"0","MEAN_ELEMENT_THEORY":"SGP4","GP_ID":"198603155","TLE_LINE1":"1 45201U 20012Z   22071.76113832  .00002933  00000-0  21568-3 0  9992","OBJECT_TYPE":"PAYLOAD","INCLINATION":"53.0523","COUNTRY_CODE":"US","DECAY_DATE":null,"TIME_SYSTEM":"UTC","LAUNCH_DATE":"2020-02-17","RA_OF_ASC_NODE":"91.5171","RCS_SIZE":"LARGE","TLE_LINE2":"2 45201  53.0523  91.5171 0001717  55.1303 304.9847 15.06408112115379","CLASSIFICATION_TYPE":"U","PERIAPSIS":"546.000","NORAD_CAT_ID":"45201","EPOCH":"2022-03-12T18:16:02.350848","CENTER_NAME":"EARTH","ECCENTRICITY":"0.00017170","SITE":"AFETR","REV_AT_EPOCH":"11537","BSTAR":"0.00021568000000","APOAPSIS":"548.378","MEAN_MOTION_DDOT":"0.0000000000000","OBJECT_NAME":"STARLINK-1199","FILE":"3356931","SEMIMAJOR_AXIS":"6925.324","MEAN_MOTION_DOT":"0.00002933","OBJECT_ID":"2020-012Z","ARG_OF_PERICENTER":"55.1303","ELEMENT_SET_NO":"999","REF_FRAME":"TEME","PERIOD":"95.592"},{"RCS_SIZE":"LARGE","RA_OF_ASC_NODE":"102.1847","LAUNCH_DATE":"2020-02-17","PERIAPSIS":"531.986","CLASSIFICATION_TYPE":"U","TLE_LINE2":"2 45202  52.9805 102.1847 0001426  51.5595 308.5523 15.11058937115216","INCLINATION":"52.9805","COUNTRY_CODE":"US","OBJECT_TYPE":"PAYLOAD","TLE_LINE1":"1 45202U 20012AA  22071.80701784  .00019581  00000-0  11714-2 0  9995","TIME_SYSTEM":"UTC","DECAY_DATE":null,"GP_ID":"198601903","MEAN_ELEMENT_THEORY":"SGP4","EPHEMERIS_TYPE":"0","MEAN_MOTION":"15.11058937","MEAN_ANOMALY":"308.5523","OBJECT_ID":"2020-012AA","ARG_OF_PERICENTER":"51.5595","PERIOD":"95.297","REF_FRAME":"TEME","ELEMENT_SET_NO":"999","SEMIMAJOR_AXIS":"6911.106","FILE":"3356931","OBJECT_NAME":"STARLINK-1203","MEAN_MOTION_DOT":"0.00019581","BSTAR":"0.00117140000000","REV_AT_EPOCH":"11521","SITE":"AFETR","MEAN_MOTION_DDOT":"0.0000000000000","APOAPSIS":"533.957","EPOCH":"2022-03-12T19:22:06.341376","NORAD_CAT_ID":"45202","CENTER_NAME":"EARTH","ECCENTRICITY":"0.00014260"},{"OBJECT_ID":"2020-012AC","ARG_OF_PERICENTER":"50.4913","ELEMENT_SET_NO":"999","REF_FRAME":"TEME","PERIOD":"95.591","OBJECT_NAME":"STARLINK-1206","SEMIMAJOR_AXIS":"6925.284","FILE":"3356931","MEAN_MOTION_DOT":"0.00003727","REV_AT_EPOCH":"11539","SITE":"AFETR","BSTAR":"0.00026885000000","APOAPSIS":"548.497","MEAN_MOTION_DDOT":"0.0000000000000","EPOCH":"2022-03-12T18:53:11.874336","NORAD_CAT_ID":"45204","CENTER_NAME":"EARTH","ECCENTRICITY":"0.00019470","LAUNCH_DATE":"2020-02-17","RCS_SIZE":"LARGE","RA_OF_ASC_NODE":"91.3988","CLASSIFICATION_TYPE":"U","TLE_LINE2":"2 45204  53.0555  91.3988 0001947  50.4913 309.6247 15.06421118115390","PERIAPSIS":"545.800","TLE_LINE1":"1 45204U 20012AC  22071.78694299  .00003727  00000-0  26885-3 0  9997","COUNTRY_CODE":"US","INCLINATION":"53.0555","OBJECT_TYPE":"PAYLOAD","DECAY_DATE":null,"TIME_SYSTEM":"UTC","EPHEMERIS_TYPE":"0","MEAN_ELEMENT_THEORY":"SGP4","GP_ID":"198602153","MEAN_MOTION":"15.06421118","MEAN_ANOMALY":"309.6247"},{"DECAY_DATE":null,"TIME_SYSTEM":"UTC","TLE_LINE1":"1 45205U 20012AD  22071.87540131  .00002085  00000-0  15881-3 0  9993","INCLINATION":"53.0532","COUNTRY_CODE":"US","OBJECT_TYPE":"PAYLOAD","CLASSIFICATION_TYPE":"U","TLE_LINE2":"2 45205  53.0532  90.9888 0001794  59.4016 300.7150 15.06406959115417","PERIAPSIS":"545.950","LAUNCH_DATE":"2020-02-17","RCS_SIZE":"LARGE","RA_OF_ASC_NODE":"90.9888","MEAN_MOTION":"15.06406959","MEAN_ANOMALY":"300.7150","EPHEMERIS_TYPE":"0","MEAN_ELEMENT_THEORY":"SGP4","GP_ID":"198602905","MEAN_MOTION_DOT":"0.00002085","OBJECT_NAME":"STARLINK-1208","SEMIMAJOR_AXIS":"6925.327","FILE":"3356931","ELEMENT_SET_NO":"999","REF_FRAME":"TEME","PERIOD":"95.592","ARG_OF_PERICENTER":"59.4016","OBJECT_ID":"2020-012AD","CENTER_NAME":"EARTH","ECCENTRICITY":"0.00017940","EPOCH":"2022-03-12T21:00:34.673184","NORAD_CAT_ID":"45205","APOAPSIS":"548.435","MEAN_MOTION_DDOT":"0.0000000000000","REV_AT_EPOCH":"11541","SITE":"AFETR","BSTAR":"0.00015881000000"},{"TIME_SYSTEM":"UTC","DECAY_DATE":null,"OBJECT_TYPE":"PAYLOAD","INCLINATION":"53.0526","COUNTRY_CODE":"US","TLE_LINE1":"1 45206U 20012AE  22071.70395749  .00015318  00000-0  10431-2 0  9997","PERIAPSIS":"543.401","TLE_LINE2":"2 45206  53.0526  71.7746 0005231 267.0524  92.9866 15.06462033114690","CLASSIFICATION_TYPE":"U","RA_OF_ASC_NODE":"71.7746","RCS_SIZE":"LARGE","LAUNCH_DATE":"2020-02-17","MEAN_ANOMALY":"92.9866","MEAN_MOTION":"15.06462033","GP_ID":"198603656","MEAN_ELEMENT_THEORY":"SGP4","EPHEMERIS_TYPE":"0","MEAN_MOTION_DOT":"0.00015318","FILE":"3356931","SEMIMAJOR_AXIS":"6925.158","OBJECT_NAME":"STARLINK-1209","PERIOD":"95.588","ELEMENT_SET_NO":"999","REF_FRAME":"TEME","OBJECT_ID":"2020-012AE","ARG_OF_PERICENTER":"267.0524","CENTER_NAME":"EARTH","ECCENTRICITY":"0.00052310","NORAD_CAT_ID":"45206","EPOCH":"2022-03-12T16:53:41.927136","MEAN_MOTION_DDOT":"0.0000000000000","APOAPSIS":"550.646","BSTAR":"0.00104310000000","SITE":"AFETR","REV_AT_EPOCH":"11469"},{"OBJECT_NAME":"STARLINK-1210","FILE":"3356931","SEMIMAJOR_AXIS":"6925.298","MEAN_MOTION_DOT":"0.00001560","ARG_OF_PERICENTER":"64.0489","OBJECT_ID":"2020-012AF","ELEMENT_SET_NO":"999","REF_FRAME":"TEME","PERIOD":"95.591","NORAD_CAT_ID":"45207","EPOCH":"2022-03-12T13:34:43.436064","ECCENTRICITY":"0.00016620","CENTER_NAME":"EARTH","SITE":"AFETR","REV_AT_EPOCH":"11534","BSTAR":"0.00012356000000","APOAPSIS":"548.314","MEAN_MOTION_DDOT":"0.0000000000000","TLE_LINE1":"1 45207U 20012AF  22071.56578051  .00001560  00000-0  12356-3 0  9994","OBJECT_TYPE":"PAYLOAD","INCLINATION":"53.0531","COUNTRY_CODE":"US","DECAY_DATE":null,"TIME_SYSTEM":"UTC","LAUNCH_DATE":"2020-02-17","RA_OF_ASC_NODE":"92.3818","RCS_SIZE":"LARGE","TLE_LINE2":"2 45207  53.0531  92.3818 0001662  64.0489 296.0671 15.06416406115342","CLASSIFICATION_TYPE":"U","PERIAPSIS":"546.012","MEAN_ANOMALY":"296.0671","MEAN_MOTION":"15.06416406","EPHEMERIS_TYPE":"0","MEAN_ELEMENT_THEORY":"SGP4","GP_ID":"198602404"},{"MEAN_MOTION":"15.05599630","MEAN_ANOMALY":"301.3900","EPHEMERIS_TYPE":"0","MEAN_ELEMENT_THEORY":"SGP4","GP_ID":"198568310","DECAY_DATE":null,"TIME_SYSTEM":"UTC","TLE_LINE1":"1 45208U 20012AG  22071.47281684  .00001568  00000-0  12673-3 0  9998","COUNTRY_CODE":"US","INCLINATION":"53.0017","OBJECT_TYPE":"PAYLOAD","CLASSIFICATION_TYPE":"U","TLE_LINE2":"2 45208  53.0017  92.7976 0001622  58.7247 301.3900 15.05599630115232","PERIAPSIS":"548.544","LAUNCH_DATE":"2020-02-17","RCS_SIZE":"LARGE","RA_OF_ASC_NODE":"92.7976","ECCENTRICITY":"0.00016220","CENTER_NAME":"EARTH","EPOCH":"2022-03-12T11:20:51.374976","NORAD_CAT_ID":"45208","APOAPSIS":"550.791","MEAN_MOTION_DDOT":"0.0000000000000","REV_AT_EPOCH":"11523","SITE":"AFETR","BSTAR":"0.00012673000000","MEAN_MOTION_DOT":"0.00001568","OBJECT_NAME":"STARLINK-1211","SEMIMAJOR_AXIS":"6927.803","FILE":"3356520","ELEMENT_SET_NO":"999","REF_FRAME":"TEME","PERIOD":"95.643","ARG_OF_PERICENTER":"58.7247","OBJECT_ID":"2020-012AG"},{"TLE_LINE1":"1 45209U 20012AH  22071.91245645 -.00011281  00000-0 -64699-4 0  9996","OBJECT_TYPE":"PAYLOAD","COUNTRY_CODE":"US","INCLINATION":"53.0485","DECAY_DATE":null,"TIME_SYSTEM":"UTC","LAUNCH_DATE":"2020-02-17","RA_OF_ASC_NODE":"326.3750","RCS_SIZE":"LARGE","TLE_LINE2":"2 45209  53.0485 326.3750 0009131 283.7825  76.2178 15.76738897117081","CLASSIFICATION_TYPE":"U","PERIAPSIS":"333.555","MEAN_ANOMALY":"76.2178","MEAN_MOTION":"15.76738897","EPHEMERIS_TYPE":"0","MEAN_ELEMENT_THEORY":"SGP4","GP_ID":"198603406","OBJECT_NAME":"STARLINK-1218","SEMIMAJOR_AXIS":"6717.824","FILE":"3356931","MEAN_MOTION_DOT":"-0.00011281","ARG_OF_PERICENTER":"283.7825","OBJECT_ID":"2020-012AH","ELEMENT_SET_NO":"999","REF_FRAME":"TEME","PERIOD":"91.328","NORAD_CAT_ID":"45209","EPOCH":"2022-03-12T21:53:56.237280","CENTER_NAME":"EARTH","ECCENTRICITY":"0.00091310","SITE":"AFETR","REV_AT_EPOCH":"11708","BSTAR":"-0.00006469900000","APOAPSIS":"345.824","MEAN_MOTION_DDOT":"0.0000000000000"}];
